start=new Date('2022-08-04T00:00:00.000Z').valueOf();
sats=[{"MEAN_ANOMALY":"201.7363","COUNTRY_CODE":"US","RA_OF_ASC_NODE":"246.8602","REV_AT_EPOCH":"1725","MEAN_MOTION_DDOT":"0.0000000000000","BSTAR":"0.00210100000000","DECAY_DATE":null,"ECCENTRICITY":"0.00018610","EPHEMERIS_TYPE":"0","INCLINATION":"53.2159","REF_FRAME":"TEME","MEAN_MOTION_DOT":"0.00033292","ARG_OF_PERICENTER":"54.6187","LAUNCH_DATE":"2022-04-21","EPOCH":"2022-08-03T22:00:01.999584","TLE_LINE2":"2 52274  53.2159 246.8602 0001861  54.6187 201.7363 15.08822962 17252","PERIAPSIS":"538.510","CENTER_NAME":"EARTH","OBJECT_NAME":"STARLINK-3790","RCS_SIZE":"LARGE","GP_ID":"209499747","CLASSIFICATION_TYPE":"U","TLE_LINE1":"1 52274U 22041P   22215.91668981  .00033292  00000-0  21010-2 0  9994","OBJECT_TYPE":"PAYLOAD","MEAN_ELEMENT_THEORY":"SGP4","SITE":"AFETR","NORAD_CAT_ID":"52274","APOAPSIS":"541.085","TIME_SYSTEM":"UTC","MEAN_MOTION":"15.08822962","FILE":"3528486","OBJECT_ID":"2022-041P","ELEMENT_SET_NO":"999","PERIOD":"95.439","SEMIMAJOR_AXIS":"6917.932"},{"COUNTRY_CODE":"US","MEAN_ANOMALY":"168.0189","DECAY_DATE":null,"BSTAR":"0.00207160000000","MEAN_MOTION_DDOT":"0.0000000000000","RA_OF_ASC_NODE":"246.8605","REV_AT_EPOCH":"1724","MEAN_MOTION_DOT":"0.00032819","REF_FRAME":"TEME","EPHEMERIS_TYPE":"0","INCLINATION":"53.2153","ECCENTRICITY":"0.00017180","EPOCH":"2022-08-03T22:00:01.999584","LAUNCH_DATE":"2022-04-21","ARG_OF_PERICENTER":"48.2269","RCS_SIZE":"LARGE","OBJECT_NAME":"STARLINK-3784","CENTER_NAME":"EARTH","PERIAPSIS":"538.614","TLE_LINE2":"2 52275  53.2153 246.8605 0001718  48.2269 168.0189 15.08821406 17243","OBJECT_TYPE":"PAYLOAD","TLE_LINE1":"1 52275U 22041Q   22215.91668981  .00032819  00000-0  20716-2 0  9991","CLASSIFICATION_TYPE":"U","GP_ID":"209499269","FILE":"3528486","ELEMENT_SET_NO":"999","OBJECT_ID":"2022-041Q","MEAN_MOTION":"15.08821406","APOAPSIS":"540.991","TIME_SYSTEM":"UTC","NORAD_CAT_ID":"52275","SITE":"AFETR","MEAN_ELEMENT_THEORY":"SGP4","SEMIMAJOR_AXIS":"6917.937","PERIOD":"95.439"},{"REV_AT_EPOCH":"1725","RA_OF_ASC_NODE":"246.8703","MEAN_MOTION_DDOT":"0.0000000000000","BSTAR":"0.00216850000000","DECAY_DATE":null,"COUNTRY_CODE":"US","MEAN_ANOMALY":"229.2263","ARG_OF_PERICENTER":"47.1035","EPOCH":"2022-08-03T22:00:01.999584","LAUNCH_DATE":"2022-04-21","ECCENTRICITY":"0.00018840","REF_FRAME":"TEME","MEAN_MOTION_DOT":"0.00034367","EPHEMERIS_TYPE":"0","INCLINATION":"53.2169","GP_ID":"209499758","OBJECT_TYPE":"PAYLOAD","CLASSIFICATION_TYPE":"U","TLE_LINE1":"1 52276U 22041R   22215.91668981  .00034367  00000-0  21685-2 0  9998","OBJECT_NAME":"STARLINK-3778","TLE_LINE2":"2 52276  53.2169 246.8703 0001884  47.1035 229.2263 15.08812929 17257","CENTER_NAME":"EARTH","PERIAPSIS":"538.525","RCS_SIZE":"LARGE","SEMIMAJOR_AXIS":"6917.963","PERIOD":"95.439","NORAD_CAT_ID":"52276","SITE":"AFETR","MEAN_ELEMENT_THEORY":"SGP4","OBJECT_ID":"2022-041R","FILE":"3528481","ELEMENT_SET_NO":"999","APOAPSIS":"541.131","MEAN_MOTION":"15.08812929","TIME_SYSTEM":"UTC"},{"DECAY_DATE":null,"BSTAR":"0.00206280000000","MEAN_MOTION_DDOT":"0.0000000000000","RA_OF_ASC_NODE":"246.8615","REV_AT_EPOCH":"1725","MEAN_ANOMALY":"183.4701","COUNTRY_CODE":"US","LAUNCH_DATE":"2022-04-21","EPOCH":"2022-08-03T22:00:01.999584","ARG_OF_PERICENTER":"52.8738","EPHEMERIS_TYPE":"0","INCLINATION":"53.2158","MEAN_MOTION_DOT":"0.00032682","REF_FRAME":"TEME","ECCENTRICITY":"0.00018170","TLE_LINE1":"1 52277U 22041S   22215.91668981  .00032682  00000-0  20628-2 0  9993","CLASSIFICATION_TYPE":"U","OBJECT_TYPE":"PAYLOAD","GP_ID":"209499772","RCS_SIZE":"LARGE","PERIAPSIS":"538.532","CENTER_NAME":"EARTH","TLE_LINE2":"2 52277  53.2158 246.8615 0001817  52.8738 183.4701 15.08825861 17254","OBJECT_NAME":"STARLINK-3787","PERIOD":"95.438","SEMIMAJOR_AXIS":"6917.924","TIME_SYSTEM":"UTC","APOAPSIS":"541.046","MEAN_MOTION":"15.08825861","ELEMENT_SET_NO":"999","FILE":"3528482","OBJECT_ID":"2022-041S","MEAN_ELEMENT_THEORY":"SGP4","SITE":"AFETR","NORAD_CAT_ID":"52277"},{"ARG_OF_PERICENTER":"49.7859","EPOCH":"2022-08-03T22:00:01.999584","LAUNCH_DATE":"2022-04-21","ECCENTRICITY":"0.00019480","REF_FRAME":"TEME","MEAN_MOTION_DOT":"0.00034913","INCLINATION":"53.2163","EPHEMERIS_TYPE":"0","RA_OF_ASC_NODE":"246.8653","REV_AT_EPOCH":"1725","MEAN_MOTION_DDOT":"0.0000000000000","BSTAR":"0.00220320000000","DECAY_DATE":null,"COUNTRY_CODE":"US","MEAN_ANOMALY":"246.5967","SEMIMAJOR_AXIS":"6917.999","PERIOD":"95.440","NORAD_CAT_ID":"52278","SITE":"AFETR","MEAN_ELEMENT_THEORY":"SGP4","OBJECT_ID":"2022-041T","FILE":"3528482","ELEMENT_SET_NO":"999","APOAPSIS":"541.211","MEAN_MOTION":"15.08801243","TIME_SYSTEM":"UTC","GP_ID":"209499293","OBJECT_TYPE":"PAYLOAD","CLASSIFICATION_TYPE":"U","TLE_LINE1":"1 52278U 22041T   22215.91668981  .00034913  00000-0  22032-2 0  9994","OBJECT_NAME":"STARLINK-3780","TLE_LINE2":"2 52278  53.2163 246.8653 0001948  49.7859 246.5967 15.08801243 17250","CENTER_NAME":"EARTH","PERIAPSIS":"538.516","RCS_SIZE":"LARGE"},{"MEAN_ANOMALY":"192.2318","COUNTRY_CODE":"US","MEAN_MOTION_DDOT":"0.0000000000000","DECAY_DATE":null,"BSTAR":"0.00210020000000","RA_OF_ASC_NODE":"246.8598","REV_AT_EPOCH":"1725","EPHEMERIS_TYPE":"0","INCLINATION":"53.2154","REF_FRAME":"TEME","MEAN_MOTION_DOT":"0.00033271","ECCENTRICITY":"0.00017550","LAUNCH_DATE":"2022-04-21","EPOCH":"2022-08-03T22:00:01.999584","ARG_OF_PERICENTER":"58.9136","RCS_SIZE":"LARGE","TLE_LINE2":"2 52279  53.2154 246.8598 0001755  58.9136 192.2318 15.08814270 17256","PERIAPSIS":"538.610","CENTER_NAME":"EARTH","OBJECT_NAME":"STARLINK-3686","CLASSIFICATION_TYPE":"U","TLE_LINE1":"1 52279U 22041U   22215.91668981  .00033271  00000-0  21002-2 0  9997","OBJECT_TYPE":"PAYLOAD","GP_ID":"209499290","APOAPSIS":"541.038","MEAN_MOTION":"15.08814270","TIME_SYSTEM":"UTC","FILE":"3528482","ELEMENT_SET_NO":"999","OBJECT_ID":"2022-041U","MEAN_ELEMENT_THEORY":"SGP4","NORAD_CAT_ID":"52279","SITE":"AFETR","PERIOD":"95.439","SEMIMAJOR_AXIS":"6917.959"},{"RCS_SIZE":"LARGE","OBJECT_NAME":"STARLINK-3764","PERIAPSIS":"538.447","CENTER_NAME":"EARTH","TLE_LINE2":"2 52280  53.2189 246.8753 0001998  40.2074 316.1666 15.08812556 17251","OBJECT_TYPE":"PAYLOAD","TLE_LINE1":"1 52280U 22041V   22215.91668981  .00036725  00000-0  23153-2 0  9995","CLASSIFICATION_TYPE":"U","GP_ID":"209499289","FILE":"3528482","ELEMENT_SET_NO":"999","OBJECT_ID":"2022-041V","APOAPSIS":"541.211","TIME_SYSTEM":"UTC","MEAN_MOTION":"15.08812556","SITE":"AFETR","NORAD_CAT_ID":"52280","MEAN_ELEMENT_THEORY":"SGP4","PERIOD":"95.439","SEMIMAJOR_AXIS":"6917.964","COUNTRY_CODE":"US","MEAN_ANOMALY":"316.1666","BSTAR":"0.00231530000000","DECAY_DATE":null,"MEAN_MOTION_DDOT":"0.0000000000000","RA_OF_ASC_NODE":"246.8753","REV_AT_EPOCH":"1725","MEAN_MOTION_DOT":"0.00036725","REF_FRAME":"TEME","EPHEMERIS_TYPE":"0","INCLINATION":"53.2189","ECCENTRICITY":"0.00019980","EPOCH":"2022-08-03T22:00:01.999584","LAUNCH_DATE":"2022-04-21","ARG_OF_PERICENTER":"40.2074"},{"APOAPSIS":"541.225","TIME_SYSTEM":"UTC","MEAN_MOTION":"15.08813623","ELEMENT_SET_NO":"999","FILE":"3528511","OBJECT_ID":"2022-041W","MEAN_ELEMENT_THEORY":"SGP4","SITE":"AFETR","NORAD_CAT_ID":"52281","SEMIMAJOR_AXIS":"6917.961","PERIOD":"95.439","RCS_SIZE":"LARGE","CENTER_NAME":"EARTH","PERIAPSIS":"538.427","TLE_LINE2":"2 52281  53.2149 246.8620 0002022  46.4957 224.6890 15.08813623 17256","OBJECT_NAME":"STARLINK-3779","TLE_LINE1":"1 52281U 22041W   22215.91668981  .00033465  00000-0  21123-2 0  9999","CLASSIFICATION_TYPE":"U","OBJECT_TYPE":"PAYLOAD","GP_ID":"209499776","EPHEMERIS_TYPE":"0","INCLINATION":"53.2149","MEAN_MOTION_DOT":"0.00033465","REF_FRAME":"TEME","ECCENTRICITY":"0.00020220","LAUNCH_DATE":"2022-04-21","EPOCH":"2022-08-03T22:00:01.999584","ARG_OF_PERICENTER":"46.4957","MEAN_ANOMALY":"224.6890","COUNTRY_CODE":"US","DECAY_DATE":null,"BSTAR":"0.00211230000000","MEAN_MOTION_DDOT":"0.0000000000000","RA_OF_ASC_NODE":"246.8620","REV_AT_EPOCH":"1725"},{"ARG_OF_PERICENTER":"45.4559","EPOCH":"2022-08-03T22:00:01.999584","LAUNCH_DATE":"2022-04-21","ECCENTRICITY":"0.00019470","MEAN_MOTION_DOT":"0.00043021","REF_FRAME":"TEME","EPHEMERIS_TYPE":"0","INCLINATION":"53.2124","REV_AT_EPOCH":"1738","RA_OF_ASC_NODE":"236.8767","BSTAR":"0.00270600000000","DECAY_DATE":null,"MEAN_MOTION_DDOT":"0.0000000000000","COUNTRY_CODE":"US","MEAN_ANOMALY":"345.9701","SEMIMAJOR_AXIS":"6917.933","PERIOD":"95.439","SITE":"AFETR","NORAD_CAT_ID":"52282","MEAN_ELEMENT_THEORY":"SGP4","FILE":"3528500","ELEMENT_SET_NO":"999","OBJECT_ID":"2022-041X","APOAPSIS":"541.145","MEAN_MOTION":"15.08822831","TIME_SYSTEM":"UTC","GP_ID":"209499800","OBJECT_TYPE":"PAYLOAD","TLE_LINE1":"1 52282U 22041X   22215.91668981  .00043021  00000-0  27060-2 0  9995","CLASSIFICATION_TYPE":"U","OBJECT_NAME":"STARLINK-3783","PERIAPSIS":"538.451","CENTER_NAME":"EARTH","TLE_LINE2":"2 52282  53.2124 236.8767 0001947  45.4559 345.9701 15.08822831 17386","RCS_SIZE":"LARGE"},{"LAUNCH_DATE":"2022-04-21","EPOCH":"2022-08-03T22:00:01.999584","ARG_OF_PERICENTER":"50.8427","EPHEMERIS_TYPE":"0","INCLINATION":"53.2177","MEAN_MOTION_DOT":"0.00035937","REF_FRAME":"TEME","ECCENTRICITY":"0.00018540","DECAY_DATE":null,"BSTAR":"0.00226580000000","MEAN_MOTION_DDOT":"0.0000000000000","REV_AT_EPOCH":"1725","RA_OF_ASC_NODE":"246.8697","MEAN_ANOMALY":"265.5480","COUNTRY_CODE":"US","SEMIMAJOR_AXIS":"6917.941","PERIOD":"95.439","APOAPSIS":"541.088","MEAN_MOTION":"15.08820243","TIME_SYSTEM":"UTC","FILE":"3528500","OBJECT_ID":"2022-041Y","ELEMENT_SET_NO":"999","MEAN_ELEMENT_THEORY":"SGP4","NORAD_CAT_ID":"52283","SITE":"AFETR","TLE_LINE1":"1 52283U 22041Y   22215.91668981  .00035937  00000-0  22658-2 0  9991","CLASSIFICATION_TYPE":"U","OBJECT_TYPE":"PAYLOAD","GP_ID":"209499804","RCS_SIZE":"LARGE","CENTER_NAME":"EARTH","PERIAPSIS":"538.523","TLE_LINE2":"2 52283  53.2177 246.8697 0001854  50.8427 265.5480 15.08820243 17251","OBJECT_NAME":"STARLINK-3789"}];
